NORAD_CAT_ID,OBJECT_NAME,OBJECT_TYPE,EPOCH,MEAN_MOTION,ECCENTRICITY,INCLINATION,RA_OF_ASC_NODE,ARG_OF_PERICENTER,MEAN_ANOMALY,BSTAR,MEAN_MOTION_DOT,MEAN_MOTION_DDOT,TLE_LINE0,TLE_LINE1,TLE_LINE2,SEMIMAJOR_AXIS,PERIOD,APOGEE,PERIGEE,DECAYED
53904.0,STARLINK-4787,PAYLOAD,2023-06-19 02:49:25,15.08840919,0.0001006,53.216,108.5282,85.4676,274.6432,2.565e-05,1.2e-06,0.0,0 STARLINK-4787,1 53904U 22119U   23170.11766125  .00000120  00000-0  25650-4 0  9993,2 53904  53.2160 108.5282 0001006  85.4676 274.6432 15.08840919 41120,6917.878,95.437,540.439,539.047,0.0
53904.0,STARLINK-4787,PAYLOAD,2023-06-19 12:21:45,15.08816397,9.48e-05,53.2158,106.7443,95.7815,264.3285,0.00041556,6.328e-05,0.0,0 STARLINK-4787,1 53904U 22119U   23170.51510768  .00006328  00000-0  41556-3 0  9995,2 53904  53.2158 106.7443 0000948  95.7815 264.3285 15.08816397 41607,6917.953,95.439,540.473,539.162,0.0
53904.0,STARLINK-4787,PAYLOAD,2023-06-20 02:40:13,15.08836452,0.0001075,53.2163,104.0698,83.4738,276.6376,0.00015388,2.162e-05,0.0,0 STARLINK-4787,1 53904U 22119U   23171.11126337  .00002162  00000-0  15388-3 0  9993,2 53904  53.2163 104.0698 0001075  83.4738 276.6376 15.08836452 41270,6917.891,95.438,540.5,539.013,0.0
53904.0,STARLINK-4787,PAYLOAD,2023-06-20 12:12:32,15.08837604,0.0001099,53.2164,102.2856,83.9202,276.1916,0.00013739,1.899e-05,0.0,0 STARLINK-4787,1 53904U 22119U   23171.50870395  .00001899  00000-0  13739-3 0  9990,2 53904  53.2164 102.2856 0001099  83.9202 276.1916 15.08837604 41752,6917.888,95.438,540.513,538.992,0.0
53904.0,STARLINK-4787,PAYLOAD,2023-06-20 18:34:04,15.08845052,0.000116,53.2173,101.098,93.4674,266.6451,-7.0856e-06,-4.01e-06,0.0,0 STARLINK-4787,1 53904U 22119U   23171.77366452 -.00000401  00000-0 -70856-5 0  9998,2 53904  53.2173 101.0980 0001160  93.4674 266.6451 15.08845052 41793,6917.865,95.437,540.532,538.927,0.0
53904.0,STARLINK-4787,PAYLOAD,2023-06-21 05:41:46,15.08846184,0.0001115,53.217,99.0136,88.3753,271.7367,6.5918e-06,-1.83e-06,0.0,0 STARLINK-4787,1 53904U 22119U   23172.23734199 -.00000183  00000-0  65918-5 0  9996,2 53904  53.2170  99.0136 0001115  88.3753 271.7367 15.08846184 41442,6917.861,95.437,540.498,538.955,0.0
53904.0,STARLINK-4787,PAYLOAD,2023-06-21 12:03:19,15.0884047,8.7e-05,53.2151,97.8216,79.6762,280.4328,-6.4521e-05,-1.314e-05,0.0,0 STARLINK-4787,1 53904U 22119U   23172.50230738 -.00001314  00000-0 -64521-4 0  9992,2 53904  53.2151  97.8216 0000870  79.6762 280.4328 15.08840470 41903,6917.879,95.438,540.346,539.142,0.0
53904.0,STARLINK-4787,PAYLOAD,2023-06-23 02:12:34,15.08841115,8.5e-05,53.2162,90.6873,54.0791,306.028,0.00013007,1.783e-05,0.0,0 STARLINK-4787,1 53904U 22119U   23174.09206612  .00001783  00000-0  13007-3 0  9992,2 53904  53.2162  90.6873 0000850  54.0791 306.0280 15.08841115 41721,6917.877,95.437,540.33,539.154,0.0
53904.0,STARLINK-4787,PAYLOAD,2023-06-24 11:35:40,15.08842232,0.0001143,53.2159,84.441,97.7545,262.3577,1.3212e-05,-7.8e-07,0.0,0 STARLINK-4787,1 53904U 22119U   23175.48310688 -.00000078  00000-0  13212-4 0  9991,2 53904  53.2159  84.4410 0001143  97.7545 262.3577 15.08842232 41939,6917.874,95.437,540.529,538.948,0.0
53904.0,STARLINK-4787,PAYLOAD,2023-06-25 13:01:50,15.0883977,0.000101,53.2156,79.681,104.5633,255.5471,8.3828e-06,-1.54e-06,0.0,0 STARLINK-4787,1 53904U 22119U   23176.54294753 -.00000154  00000-0  83828-5 0  9999,2 53904  53.2156  79.6810 0001010 104.5633 255.5471 15.08839770 42092,6917.881,95.438,540.445,539.047,0.0
53904.0,STARLINK-4787,PAYLOAD,2023-06-26 12:52:38,15.08829719,9.24e-05,53.2164,75.2252,80.0913,280.0184,1.509e-05,-4.8e-07,0.0,0 STARLINK-4787,1 53904U 22119U   23177.53655466 -.00000048  00000-0  15090-4 0  9998,2 53904  53.2164  75.2252 0000924  80.0913 280.0184 15.08829719 42248,6917.912,95.438,540.416,539.138,0.0
53904.0,STARLINK-4787,PAYLOAD,2023-06-27 09:32:38,15.08841697,8.39e-05,53.2177,71.3571,88.4146,271.6942,9.7231e-06,-1.33e-06,0.0,0 STARLINK-4787,1 53904U 22119U   23178.39766853 -.00000133  00000-0  97231-5 0  9999,2 53904  53.2177  71.3571 0000839  88.4146 271.6942 15.08841697 42379,6917.875,95.437,540.321,539.16,0.0
53904.0,STARLINK-4787,PAYLOAD,2023-06-28 23:41:54,15.08832874,8.79e-05,53.2166,64.223,85.9693,274.14,6.8051e-05,7.95e-06,0.0,0 STARLINK-4787,1 53904U 22119U   23179.98743907  .00000795  00000-0  68051-4 0  9990,2 53904  53.2166  64.2230 0000879  85.9693 274.1400 15.08832874 42614,6917.902,95.438,540.375,539.159,0.0
53904.0,STARLINK-4787,PAYLOAD,2023-06-30 15:26:33,15.0883729,8.77e-05,53.2165,56.7885,89.053,271.0562,3.3117e-05,2.39e-06,0.0,0 STARLINK-4787,1 53904U 22119U   23181.64343906  .00000239  00000-0  33117-4 0  9999,2 53904  53.2165  56.7885 0000877  89.0530 271.0562 15.08837290 42867,6917.889,95.438,540.36,539.147,0.0
53904.0,STARLINK-4787,PAYLOAD,2023-07-02 00:49:38,15.08840357,9.12e-05,53.2172,50.5425,95.7373,264.3723,5.5554e-05,5.97e-06,0.0,0 STARLINK-4787,1 53904U 22119U   23183.03447791  .00000597  00000-0  55554-4 0  9997,2 53904  53.2172  50.5425 0000912  95.7373 264.3723 15.08840357 43072,6917.879,95.438,540.375,539.113,0.0
53904.0,STARLINK-4787,PAYLOAD,2023-07-02 08:46:34,15.08829951,0.0001027,53.2172,49.0558,91.1126,268.9983,0.00017797,2.545e-05,0.0,0 STARLINK-4787,1 53904U 22119U   23183.36568197  .00002545  00000-0  17797-3 0  9998,2 53904  53.2172  49.0558 0001027  91.1126 268.9983 15.08829951 43127,6917.911,95.438,540.487,539.066,0.0
53904.0,STARLINK-4787,PAYLOAD,2023-07-03 00:40:25,15.08846762,0.0001043,53.2173,46.0817,88.2837,271.8274,8.8586e-05,1.123e-05,0.0,0 STARLINK-4787,1 53904U 22119U   23184.02807248  .00001123  00000-0  88586-4 0  9991,2 53904  53.2173  46.0817 0001043  88.2837 271.8274 15.08846762 43223,6917.86,95.437,540.446,539.003,0.0
53904.0,STARLINK-4787,PAYLOAD,2023-07-03 14:58:54,15.0883645,0.000102,53.2171,43.4052,88.2128,271.8981,4.0559e-05,3.58e-06,0.0,0 STARLINK-4787,1 53904U 22119U   23184.62423992  .00000358  00000-0  40559-4 0  9994,2 53904  53.2171  43.4052 0001020  88.2128 271.8981 15.08836450 43319,6917.891,95.438,540.462,539.051,0.0
53904.0,STARLINK-4787,PAYLOAD,2023-07-04 00:31:12,15.08842425,0.0001078,53.2175,41.6213,88.0403,272.0713,4.8823e-05,4.89e-06,0.0,0 STARLINK-4787,1 53904U 22119U   23185.02167593  .00000489  00000-0  48823-4 0  9998,2 53904  53.2175  41.6213 0001078  88.0403 272.0713 15.08842425 43370,6917.873,95.437,540.484,538.992,0.0
53904.0,STARLINK-4787,PAYLOAD,2023-07-04 14:49:41,15.08836516,0.0001123,53.2174,38.9454,89.9298,270.1822,-4.022e-05,-9.28e-06,0.0,0 STARLINK-4787,1 53904U 22119U   23185.61784331 -.00000928  00000-0 -40220-4 0  9991,2 53904  53.2174  38.9454 0001123  89.9298 270.1822 15.08836516 43462,6917.891,95.438,540.533,538.979,0.0
53904.0,STARLINK-4787,PAYLOAD,2023-07-05 00:21:59,15.08844359,0.0001035,53.2169,37.1608,91.6536,268.4574,1.409e-05,-6.4e-07,0.0,0 STARLINK-4787,1 53904U 22119U   23186.01527628 -.00000064  00000-0  14090-4 0  9996,2 53904  53.2169  37.1608 0001035  91.6536 268.4574 15.08844359 43520,6917.867,95.437,540.448,539.016,0.0
53904.0,STARLINK-4787,PAYLOAD,2023-07-06 00:12:48,15.08827083,0.0001062,53.2177,32.7008,90.5883,269.5231,-5.9598e-05,-1.236e-05,0.0,0 STARLINK-4787,1 53904U 22119U   23187.00889434 -.00001236  00000-0 -59598-4 0  9997,2 53904  53.2177  32.7008 0001062  90.5883 269.5231 15.08827083 43670,6917.92,95.438,540.52,539.05,0.0
53904.0,STARLINK-4787,PAYLOAD,2023-07-06 06:34:20,15.08833469,0.0001043,53.2177,31.5115,90.0074,270.1038,-2.0506e-05,-6.14e-06,0.0,0 STARLINK-4787,1 53904U 22119U   23187.27385086 -.00000614  00000-0 -20506-4 0  9996,2 53904  53.2177  31.5115 0001043  90.0074 270.1038 15.08833469 43715,6917.9,95.438,540.487,539.044,0.0
53904.0,STARLINK-4787,PAYLOAD,2023-07-07 01:38:57,15.08844771,9.9e-05,53.2175,27.9427,89.521,270.5896,0.00015707,2.213e-05,0.0,0 STARLINK-4787,1 53904U 22119U   23188.06872071  .00002213  00000-0  15707-3 0  9990,2 53904  53.2175  27.9427 0000990  89.5210 270.5896 15.08844771 43830,6917.866,95.437,540.416,539.046,0.0
53904.0,STARLINK-4787,PAYLOAD,2023-07-08 18:58:59,15.08840655,0.0001093,53.2171,20.2111,85.981,274.1307,2.4122e-05,9.6e-07,0.0,0 STARLINK-4787,1 53904U 22119U   23189.79096841  .00000096  00000-0  24122-4 0  9993,2 53904  53.2171  20.2111 0001093  85.9810 274.1307 15.08840655 44096,6917.878,95.438,540.5,538.987,0.0
53904.0,STARLINK-4787,PAYLOAD,2023-07-10 05:57:28,15.08841918,8.79e-05,53.2175,13.6698,91.0543,269.055,-3.4138e-05,-8.31e-06,0.0,0 STARLINK-4787,1 53904U 22119U   23191.24824812 -.00000831  00000-0 -34138-4 0  9990,2 53904  53.2175  13.6698 0000879  91.0543 269.0550 15.08841918 44319,6917.875,95.437,540.348,539.131,0.0
53904.0,STARLINK-4787,PAYLOAD,2023-07-10 17:05:10,15.08844428,0.0001015,53.2177,11.5884,77.6972,282.4134,0.0001225,1.663e-05,0.0,0 STARLINK-4787,1 53904U 22119U   23191.71192279  .00001663  00000-0  12250-3 0  9999,2 53904  53.2177  11.5884 0001015  77.6972 282.4134 15.08844428 44387,6917.867,95.437,540.434,539.03,0.0
53904.0,STARLINK-4787,PAYLOAD,2023-07-11 18:31:20,15.08840474,9.87e-05,53.2182,6.8305,90.8202,269.2903,8.0673e-05,9.96e-06,0.0,0 STARLINK-4787,1 53904U 22119U   23192.77176685  .00000996  00000-0  80673-4 0  9992,2 53904  53.2182   6.8305 0000987  90.8202 269.2903 15.08840474 44540,6917.879,95.438,540.427,539.061,0.0
53904.0,STARLINK-4787,PAYLOAD,2023-07-13 18:12:54,15.08841247,8.59e-05,53.2179,357.9089,89.9365,270.1726,5.6075e-05,6.05e-06,0.0,0 STARLINK-4787,1 53904U 22119U   23194.75896929  .00000605  00000-0  56075-4 0  9998,2 53904  53.2179 357.9089 0000859  89.9365 270.1726 15.08841247 44848,6917.877,95.437,540.336,539.147,0.0
53904.0,STARLINK-4787,PAYLOAD,2023-07-14 10:06:46,15.08835803,9.7e-05,53.218,354.9356,91.2182,268.8921,0.00011046,1.47e-05,0.0,0 STARLINK-4787,1 53904U 22119U   23195.42137431  .00001470  00000-0  11046-3 0  9998,2 53904  53.2180 354.9356 0000970  91.2182 268.8921 15.08835803 44944,6917.893,95.438,540.429,539.087,0.0
